GPS BIIA-23 (PRN 18)    
1 22877U 93068A   19011.54246147 -.00000050  00000-0  00000+0 0  9992
2 22877  54.5719  74.9614 0147426  78.2937 288.1888  2.00571615184733
GPS BIIR-2  (PRN 13)    
1 24876U 97035A   19010.93366462  .00000075  00000-0  00000+0 0  9992
2 24876  55.4696 204.6230 0035056  78.7666 281.6534  2.00564446157317
GPS BIIR-3  (PRN 11)    
1 25933U 99055A   19011.54185926 -.00000065  00000-0  00000+0 0  9993
2 25933  52.0274  52.6256 0163958 106.5683 260.2211  2.00562473141145
GPS BIIR-4  (PRN 20)    
1 26360U 00025A   19011.46994230  .00000016  00000-0  00000+0 0  9999
2 26360  53.2731 130.9768 0042878 130.0355 230.9738  2.00563269136836
GPS BIIR-5  (PRN 28)    
1 26407U 00040A   19010.75741128 -.00000055  00000-0  00000-0 0  9990
2 26407  56.3617 322.7677 0197170 275.0107 267.1846  2.00561260135500
GPS BIIR-6  (PRN 14)    
1 26605U 00071A   19010.33702806  .00000069  00000-0  00000+0 0  9991
2 26605  55.0437 202.1564 0102438 248.7975 260.1740  2.00564883133086
GPS BIIR-8  (PRN 16)    
1 27663U 03005A   19010.59473057 -.00000055  00000-0  00000+0 0  9993
2 27663  56.4236 322.5418 0103055  29.0725 154.1502  2.00554320116856
GPS BIIR-9  (PRN 21)    
1 27704U 03010A   19011.55565687 -.00000051  00000-0  00000+0 0  9999
2 27704  54.2453  74.4806 0249314 274.4091 210.2881  2.00577514115677
GPS BIIR-10 (PRN 22)    
1 28129U 03058A   19010.13107463  .00000013  00000-0  00000+0 0  9997
2 28129  53.0852 133.8479 0072941 277.3672  81.7829  2.00570616110340
GPS BIIR-11 (PRN 19)    
1 28190U 04009A   19011.37099845 -.00000061  00000-0  00000+0 0  9997
2 28190  56.2370  23.3053 0091372  75.9021  99.5043  2.00570836108546
GPS BIIR-12 (PRN 23)    
1 28361U 04023A   19011.00190278  .00000075  00000-0  00000+0 0  9999
2 28361  54.0524 196.6592 0128544 228.3641 313.1877  2.00564636106627
GPS BIIR-13 (PRN 02)    
1 28474U 04045A   19011.23521509 -.00000051  00000-0  00000+0 0  9993
2 28474  54.6074  74.1871 0189469 257.5402  96.5576  2.00568743103998
GPS BIIRM-1 (PRN 17)    
1 28874U 05038A   19009.85205515 -.00000069  00000-0  00000-0 0  9991
2 28874  56.3678  20.6994 0132205 260.6208 282.8278  2.00564235 97373
GPS BIIRM-2 (PRN 31)    
1 29486U 06042A   19011.43782757  .00000012  00000-0  00000+0 0  9998
2 29486  55.0706 259.3239 0091607 356.4185 167.0997  2.00547276 90115
GPS BIIRM-3 (PRN 12)    
1 29601U 06052A   19009.65435645 -.00000057  00000-0  00000+0 0  9990
2 29601  56.4023 321.4951 0070824  57.6110 303.0776  2.00558910 88996
GPS BIIRM-4 (PRN 15)    
1 32260U 07047A   19010.96622312  .00000072  00000-0  00000+0 0  9991
2 32260  53.1761 192.4937 0110327  42.4058 318.4448  2.00569148 82399
GPS BIIRM-5 (PRN 29)    
1 32384U 07062A   19011.49996632 -.00000060  00000-0  00000+0 0  9991
2 32384  56.4481  21.2611 0003904  85.3117  77.3288  2.00575405 81141
GPS BIIRM-6 (PRN 07)    
1 32711U 08012A   19008.87973565  .00000014  00000-0  00000+0 0  9997
2 32711  54.8089 258.6539 0122701 218.7962 140.4004  2.00569774 79274
GPS BIIRM-8 (PRN 05)    
1 35752U 09043A   19010.86326045  .00000023  00000-0  00000-0 0  9998
2 35752  54.3776 136.2841 0054174  39.6520 338.5672  2.00571057 68923
GPS BIIF-1  (PRN 25)    
1 36585U 10022A   19010.43045882 -.00000054  00000-0  00000+0 0  9996
2 36585  55.6855 317.8776 0078209  47.4229 126.4457  2.00552496 63131
GPS BIIF-2  (PRN 01)    
1 37753U 11036A   19009.48095503 -.00000047  00000-0  00000+0 0  9990
2 37753  55.8034  78.0324 0081104  38.2389 252.6594  2.00565359 54808
GPS BIIF-3  (PRN 24)    
1 38833U 12053A   19009.06094971  .00000016  00000-0  00000+0 0  9997
2 38833  53.8417 255.0026 0078985  31.7085 328.8497  2.00556214 45865
GPS BIIF-4  (PRN 27)    
1 39166U 13023A   19010.92030949 -.00000064  00000-0  00000+0 0  9991
2 39166  56.0570  17.4858 0063492  22.3461 337.9578  2.00560592 41438
GPS BIIF-5  (PRN 30)    
1 39533U 14008A   19009.91985110  .00000008  00000-0  00000+0 0  9996
2 39533  53.9782 260.3441 0036219 191.0028 168.9983  2.00567152 35786
GPS BIIF-6  (PRN 06)    
1 39741U 14026A   19011.19989466 -.00000047  00000-0  00000+0 0  9992
2 39741  55.7860  77.4889 0015511 287.8129  72.0777  2.00552162 34088
GPS BIIF-7  (PRN 09)    
1 40105U 14045A   19011.28657377  .00000079  00000-0  00000+0 0  9996
2 40105  54.5788 196.8656 0012532  98.2822 261.8720  2.00553849 32540
GPS BIIF-8  (PRN 03)    
1 40294U 14068A   19010.66002383  .00000025  00000-0  00000+0 0  9993
2 40294  55.1295 137.7223 0017432  33.2343 326.8520  2.00571689 30746
GPS BIIF-9  (PRN 26)    
1 40534U 15013A   19011.30070860 -.00000054  00000-0  00000+0 0  9991
2 40534  54.6180 316.3492 0034984   1.2340 358.7906  2.00551178 27824
GPS BIIF-10  (PRN 08)   
1 40730U 15033A   19009.45955876 -.00000073  00000-0  00000+0 0  9994
2 40730  55.5840  16.9554 0041897 334.8782  24.9459  2.00563423 25541
GPS BIIF-11  (PRN 10)   
1 41019U 15062A   19011.00782853  .00000027  00000-0  00000+0 0  9992
2 41019  55.1323 137.5187 0042965 203.2129 156.5724  2.00564643 23390
GPS BIIF-12  (PRN 32)   
1 41328U 16007A   19011.10060093  .00000077  00000-0  00000+0 0  9996
2 41328  54.8253 197.2201 0025651 213.6056 146.2442  2.00555267 21458
